{
  "norad_id": 65078,
  "name": "STARLINK-34771",
  "history": [
    {
      "epoch": "2026-03-28T21:01:47.252640Z",
      "apogee_km": 476.4149921592443,
      "perigee_km": 473.9283376432704,
      "latitude_deg": -1.4602475751222385e-05,
      "longitude_deg": 153.27860431776176,
      "height_km": 476.14865892542764,
      "semi_major_axis_km": 6853.308664901257,
      "eccentricity": 0.00018142,
      "inclination_deg": 53.1578,
      "raan_deg": 295.0159,
      "arg_perigee_deg": 93.685,
      "mean_anomaly_deg": 266.4358,
      "mean_motion_rev_day": 15.30214537
    },
    {
      "epoch": "2026-03-29T00:09:53.713152Z",
      "apogee_km": 476.21125083273364,
      "perigee_km": 474.1689593554165,
      "latitude_deg": 4.639241748763341e-05,
      "longitude_deg": 105.51607579135297,
      "height_km": 476.0744064563771,
      "semi_major_axis_km": 6853.327105094075,
      "eccentricity": 0.000149,
      "inclination_deg": 53.1582,
      "raan_deg": 294.409,
      "arg_perigee_deg": 89.2553,
      "mean_anomaly_deg": 270.8619,
      "mean_motion_rev_day": 15.30208361
    },
    {
      "epoch": "2026-03-29T06:26:06.710208Z",
      "apogee_km": 476.43965553932503,
      "perigee_km": 473.909412920887,
      "latitude_deg": 1.950554875647541e-06,
      "longitude_deg": 9.989477286369645,
      "height_km": 476.009693360983,
      "semi_major_axis_km": 6853.311534230105,
      "eccentricity": 0.0001846,
      "inclination_deg": 53.1588,
      "raan_deg": 293.1941,
      "arg_perigee_deg": 87.1917,
      "mean_anomaly_deg": 272.9295,
      "mean_motion_rev_day": 15.30213576
    },
    {
      "epoch": "2026-03-30T13:47:10.693248Z",
      "apogee_km": 476.0491251438898,
      "perigee_km": 474.2816584570446,
      "latitude_deg": -1.6520379959393187e-05,
      "longitude_deg": -107.6327756290676,
      "height_km": 475.9489823574566,
      "semi_major_axis_km": 6853.302391800467,
      "eccentricity": 0.00012895,
      "inclination_deg": 53.1588,
      "raan_deg": 287.126,
      "arg_perigee_deg": 82.5651,
      "mean_anomaly_deg": 277.5496,
      "mean_motion_rev_day": 15.30216638
    },
    {
      "epoch": "2026-03-30T20:03:23.464800Z",
      "apogee_km": 476.05843912451473,
      "perigee_km": 474.3901939128482,
      "latitude_deg": 3.0339797493305858e-05,
      "longitude_deg": 156.84473623613982,
      "height_km": 476.19650990532006,
      "semi_major_axis_km": 6853.361316518682,
      "eccentricity": 0.00012171,
      "inclination_deg": 53.1577,
      "raan_deg": 285.9142,
      "arg_perigee_deg": 95.11,
      "mean_anomaly_deg": 265.004,
      "mean_motion_rev_day": 15.30196903
    },
    {
      "epoch": "2026-03-31T13:17:58.475328Z",
      "apogee_km": 476.15018390392106,
      "perigee_km": 474.1991831338564,
      "latitude_deg": 4.268873453713425e-06,
      "longitude_deg": -105.84640667048832,
      "height_km": 476.1745172325074,
      "semi_major_axis_km": 6853.3116835188885,
      "eccentricity": 0.00014234,
      "inclination_deg": 53.1585,
      "raan_deg": 282.5771,
      "arg_perigee_deg": 96.0089,
      "mean_anomaly_deg": 264.1074,
      "mean_motion_rev_day": 15.30213526
    },
    {
      "epoch": "2026-04-01T19:04:59.248416Z",
      "apogee_km": 476.11700043280325,
      "perigee_km": 474.3406080163495,
      "latitude_deg": -1.4564644114678539e-05,
      "longitude_deg": 160.41199284669875,
      "height_km": 476.14187622338045,
      "semi_major_axis_km": 6853.365804224576,
      "eccentricity": 0.0001296,
      "inclination_deg": 53.1577,
      "raan_deg": 276.8119,
      "arg_perigee_deg": 90.9857,
      "mean_anomaly_deg": 269.1292,
      "mean_motion_rev_day": 15.301954
    },
    {
      "epoch": "2026-04-02T18:35:46.776480Z",
      "apogee_km": 476.4519339628214,
      "perigee_km": 473.9633474568873,
      "latitude_deg": -2.693887660138507e-05,
      "longitude_deg": 162.1959979178057,
      "height_km": 476.1858271248863,
      "semi_major_axis_km": 6853.3446407098545,
      "eccentricity": 0.00018156,
      "inclination_deg": 53.1585,
      "raan_deg": 272.2596,
      "arg_perigee_deg": 93.7339,
      "mean_anomaly_deg": 266.3869,
      "mean_motion_rev_day": 15.30202488
    },
    {
      "epoch": "2026-04-03T16:32:31.642368Z",
      "apogee_km": 475.9432957730096,
      "perigee_km": 474.6013982228669,
      "latitude_deg": -3.6966815115489514e-05,
      "longitude_deg": -172.14033246749332,
      "height_km": 476.22989293590865,
      "semi_major_axis_km": 6853.409346997938,
      "eccentricity": 9.79e-05,
      "inclination_deg": 53.1588,
      "raan_deg": 268.0115,
      "arg_perigee_deg": 95.0624,
      "mean_anomaly_deg": 265.0488,
      "mean_motion_rev_day": 15.30180817
    },
    {
      "epoch": "2026-04-04T17:37:23.254752Z",
      "apogee_km": 475.7837130719572,
      "perigee_km": 474.56245321514143,
      "latitude_deg": -4.087869639810616e-05,
      "longitude_deg": 165.75937208565588,
      "height_km": 475.8178652650054,
      "semi_major_axis_km": 6853.310083143549,
      "eccentricity": 8.91e-05,
      "inclination_deg": 53.1583,
      "raan_deg": 263.1563,
      "arg_perigee_deg": 65.4466,
      "mean_anomaly_deg": 294.6627,
      "mean_motion_rev_day": 15.30214062
    },
    {
      "epoch": "2026-04-05T04:35:45.730464Z",
      "apogee_km": 475.84396227540947,
      "perigee_km": 474.5046881762337,
      "latitude_deg": 1.861073940585507e-05,
      "longitude_deg": -1.4069743837067303,
      "height_km": 475.95004990508625,
      "semi_major_axis_km": 6853.311325225822,
      "eccentricity": 9.771e-05,
      "inclination_deg": 53.1605,
      "raan_deg": 261.0342,
      "arg_perigee_deg": 79.4308,
      "mean_anomaly_deg": 280.6803,
      "mean_motion_rev_day": 15.30213646
    }
  ]
}